ONEWEB-0528             
1 54643U 22166B   24083.92736118  .00000042  00000+0  69315-4 0  9996
2 54643  87.9273  46.2371 0001758  78.9498 281.1834 13.21825406 63849
ONEWEB-0539             
1 54644U 22166C   24083.88791913  .00000015  00000+0  58853-5 0  9992
2 54644  87.9272  46.2469 0002077  79.0606 281.0761 13.21828038 63836
ONEWEB-0540             
1 54645U 22166D   24083.88241609  .00000076  00000+0  15261-3 0  9996
2 54645  87.9267  46.2710 0002095  75.5358 284.6008 13.21829621 63826
ONEWEB-0542             
1 54646U 22166E   24083.89738583  .00000043  00000+0  72952-4 0  9995
2 54646  87.9272  46.2445 0002427  80.9025 279.2384 13.21823617 63835
ONEWEB-0545             
1 54647U 22166F   24083.93997506  .00000033  00000+0  47946-4 0  9997
2 54647  87.9263  46.2653 0002316  72.9468 287.1919 13.21827412 63802
ONEWEB-0580             
1 54648U 22166G   24083.91316140  .00000061  00000+0  11586-3 0  9996
2 54648  87.9272  46.2329 0002529  81.0584 279.0836 13.21827808 63840
ONEWEB-0582             
1 54649U 22166H   24083.88003120  .00000035  00000+0  52592-4 0  9998
2 54649  87.9266  46.2801 0001976  73.1113 287.0238 13.21828708 63816
ONEWEB-0583             
1 54650U 22166J   24083.89107013  .00000011  00000+0 -56345-5 0  9993
2 54650  87.9264  46.2795 0001526  85.8054 274.3254 13.21828292 63829
